{
  "norad_id": 63144,
  "name": "STARLINK-11581 [DTC]",
  "history": [
    {
      "epoch": "2026-03-28T20:10:00.775200Z",
      "apogee_km": 357.37426488736673,
      "perigee_km": 354.6053266314866,
      "latitude_deg": 7.1770998423819e-06,
      "longitude_deg": 6.5552173360541435,
      "height_km": 354.91747785424167,
      "semi_major_axis_km": 6734.126795759426,
      "eccentricity": 0.00020559,
      "inclination_deg": 43.0007,
      "raan_deg": 135.3134,
      "arg_perigee_deg": 307.6214,
      "mean_anomaly_deg": 52.4467,
      "mean_motion_rev_day": 15.71016795
    },
    {
      "epoch": "2026-03-30T02:41:12.384096Z",
      "apogee_km": 357.08670151556635,
      "perigee_km": 355.18763619994843,
      "latitude_deg": -2.901345415671283e-05,
      "longitude_deg": -100.162298482369,
      "height_km": 356.828168051652,
      "semi_major_axis_km": 6734.274168857757,
      "eccentricity": 0.000141,
      "inclination_deg": 42.9982,
      "raan_deg": 127.6477,
      "arg_perigee_deg": 165.8091,
      "mean_anomaly_deg": 194.2816,
      "mean_motion_rev_day": 15.70965225
    },
    {
      "epoch": "2026-03-30T05:44:19.927392Z",
      "apogee_km": 357.3873102676962,
      "perigee_km": 355.66606492242045,
      "latitude_deg": 2.709650072513742e-05,
      "longitude_deg": -146.83451400329787,
      "height_km": 356.23006080685786,
      "semi_major_axis_km": 6734.663687595058,
      "eccentricity": 0.00012779,
      "inclination_deg": 43.0,
      "raan_deg": 126.8822,
      "arg_perigee_deg": 274.597,
      "mean_anomaly_deg": 85.4752,
      "mean_motion_rev_day": 15.70828935
    },
    {
      "epoch": "2026-03-30T10:19:00.789600Z",
      "apogee_km": 357.42018589498,
      "perigee_km": 355.41180750030617,
      "latitude_deg": -2.9244227337097037e-05,
      "longitude_deg": 143.15735444993777,
      "height_km": 355.97988363318194,
      "semi_major_axis_km": 6734.552996697643,
      "eccentricity": 0.00014911,
      "inclination_deg": 43.0004,
      "raan_deg": 125.7324,
      "arg_perigee_deg": 281.9943,
      "mean_anomaly_deg": 78.0757,
      "mean_motion_rev_day": 15.70867663
    },
    {
      "epoch": "2026-03-30T19:28:22.977984Z",
      "apogee_km": 356.7420461330785,
      "perigee_km": 355.9293299690844,
      "latitude_deg": -1.2466771821698235e-05,
      "longitude_deg": 3.1398909102487513,
      "height_km": 355.8896872423306,
      "semi_major_axis_km": 6734.472688051081,
      "eccentricity": 6.034e-05,
      "inclination_deg": 43.0002,
      "raan_deg": 123.4334,
      "arg_perigee_deg": 302.3945,
      "mean_anomaly_deg": 57.6864,
      "mean_motion_rev_day": 15.70895762
    },
    {
      "epoch": "2026-03-31T18:21:46.835424Z",
      "apogee_km": 357.24551874305143,
      "perigee_km": 355.0420620684308,
      "latitude_deg": -1.219998001264459e-05,
      "longitude_deg": 13.100129216293775,
      "height_km": 355.2346585308163,
      "semi_major_axis_km": 6734.280790405741,
      "eccentricity": 0.0001636,
      "inclination_deg": 42.9992,
      "raan_deg": 117.6831,
      "arg_perigee_deg": 308.2108,
      "mean_anomaly_deg": 51.8612,
      "mean_motion_rev_day": 15.70962908
    },
    {
      "epoch": "2026-04-01T11:08:55.569120Z",
      "apogee_km": 357.15497245545066,
      "perigee_km": 355.4875205936114,
      "latitude_deg": -5.227937168633295e-05,
      "longitude_deg": 116.40913033814549,
      "height_km": 356.3328383181733,
      "semi_major_axis_km": 6734.458246524531,
      "eccentricity": 0.0001238,
      "inclination_deg": 42.9994,
      "raan_deg": 113.4679,
      "arg_perigee_deg": 253.3108,
      "mean_anomaly_deg": 106.7623,
      "mean_motion_rev_day": 15.70900815
    },
    {
      "epoch": "2026-04-02T17:40:07.236768Z",
      "apogee_km": 357.04761870011225,
      "perigee_km": 353.7535721084396,
      "latitude_deg": -1.4323310786343365e-05,
      "longitude_deg": 9.69244871751122,
      "height_km": 353.73039336999955,
      "semi_major_axis_km": 6733.537595404276,
      "eccentricity": 0.0002446,
      "inclination_deg": 43.0002,
      "raan_deg": 105.8032,
      "arg_perigee_deg": 331.1541,
      "mean_anomaly_deg": 28.9191,
      "mean_motion_rev_day": 15.71223001
    },
    {
      "epoch": "2026-04-02T22:14:47.050944Z",
      "apogee_km": 356.9755766801054,
      "perigee_km": 355.62720742524925,
      "latitude_deg": 6.9622574566626755e-06,
      "longitude_deg": -60.31242138426474,
      "height_km": 355.8246279511398,
      "semi_major_axis_km": 6734.438392052677,
      "eccentricity": 0.00010011,
      "inclination_deg": 42.9981,
      "raan_deg": 104.6522,
      "arg_perigee_deg": 291.6398,
      "mean_anomaly_deg": 68.4363,
      "mean_motion_rev_day": 15.70907762
    },
    {
      "epoch": "2026-04-03T10:27:15.801120Z",
      "apogee_km": 357.369017351999,
      "perigee_km": 355.49478682654717,
      "latitude_deg": 1.5193662759774943e-05,
      "longitude_deg": 113.00013083459021,
      "height_km": 356.33704571752367,
      "semi_major_axis_km": 6734.568902089272,
      "eccentricity": 0.00013915,
      "inclination_deg": 43.0001,
      "raan_deg": 101.5859,
      "arg_perigee_deg": 261.8576,
      "mean_anomaly_deg": 98.2134,
      "mean_motion_rev_day": 15.70862098
    },
    {
      "epoch": "2026-04-04T00:11:20.076000Z",
      "apogee_km": 357.49231701403005,
      "perigee_km": 355.11182749077034,
      "latitude_deg": 3.982785628490153e-06,
      "longitude_deg": -97.03094989650985,
      "height_km": 356.2718577477632,
      "semi_major_axis_km": 6734.4390722524,
      "eccentricity": 0.00017674,
      "inclination_deg": 43.0017,
      "raan_deg": 98.1367,
      "arg_perigee_deg": 260.4777,
      "mean_anomaly_deg": 99.5891,
      "mean_motion_rev_day": 15.70907524
    },
    {
      "epoch": "2026-04-05T08:14:05.132544Z",
      "apogee_km": 357.13632789317853,
      "perigee_km": 355.54402810921147,
      "latitude_deg": -1.8920569960120527e-07,
      "longitude_deg": 132.91723224207132,
      "height_km": 355.7727605468358,
      "semi_major_axis_km": 6734.477178001194,
      "eccentricity": 0.00011822,
      "inclination_deg": 42.9996,
      "raan_deg": 90.0887,
      "arg_perigee_deg": 295.2475,
      "mean_anomaly_deg": 64.827,
      "mean_motion_rev_day": 15.70894191
    },
    {
      "epoch": "2026-04-06T01:01:13.439424Z",
      "apogee_km": 357.3819875958825,
      "perigee_km": 354.22511626513733,
      "latitude_deg": 3.718197434608022e-05,
      "longitude_deg": -123.77380296270059,
      "height_km": 356.50320855948127,
      "semi_major_axis_km": 6733.940551930509,
      "eccentricity": 0.0002344,
      "inclination_deg": 43.0008,
      "raan_deg": 85.8716,
      "arg_perigee_deg": 234.0402,
      "mean_anomaly_deg": 126.0249,
      "mean_motion_rev_day": 15.71081971
    },
    {
      "epoch": "2026-04-07T06:00:51.801984Z",
      "apogee_km": 357.0564770407018,
      "perigee_km": 355.5984654826734,
      "latitude_deg": 7.379048943537547e-06,
      "longitude_deg": 152.84467730466076,
      "height_km": 356.20283747124336,
      "semi_major_axis_km": 6734.464471261687,
      "eccentricity": 0.00010825,
      "inclination_deg": 43.0042,
      "raan_deg": 78.5907,
      "arg_perigee_deg": 261.8979,
      "mean_anomaly_deg": 98.1766,
      "mean_motion_rev_day": 15.70898637
    },
    {
      "epoch": "2026-04-07T15:10:13.390752Z",
      "apogee_km": 357.5971851889817,
      "perigee_km": 355.0205861931163,
      "latitude_deg": -5.3754226293737317e-05,
      "longitude_deg": 12.82913436916818,
      "height_km": 355.855297107543,
      "semi_major_axis_km": 6734.445885691049,
      "eccentricity": 0.0001913,
      "inclination_deg": 43.0008,
      "raan_deg": 76.2912,
      "arg_perigee_deg": 280.128,
      "mean_anomaly_deg": 79.9371,
      "mean_motion_rev_day": 15.7090514
    },
    {
      "epoch": "2026-04-08T06:25:49.121760Z",
      "apogee_km": 358.061426038058,
      "perigee_km": 354.3833883042371,
      "latitude_deg": 1.9085529035899114e-05,
      "longitude_deg": 139.4695280708139,
      "height_km": 356.35252971493117,
      "semi_major_axis_km": 6734.359407171148,
      "eccentricity": 0.00027308,
      "inclination_deg": 43.001,
      "raan_deg": 72.4571,
      "arg_perigee_deg": 258.8168,
      "mean_anomaly_deg": 101.2393,
      "mean_motion_rev_day": 15.70935399
    },
    {
      "epoch": "2026-04-09T06:50:46.607424Z",
      "apogee_km": 357.72164393600815,
      "perigee_km": 355.0578692227109,
      "latitude_deg": -3.3092529823220234e-06,
      "longitude_deg": 126.09704931548885,
      "height_km": 356.03295041358444,
      "semi_major_axis_km": 6734.526756579359,
      "eccentricity": 0.00019777,
      "inclination_deg": 43.0012,
      "raan_deg": 66.3269,
      "arg_perigee_deg": 275.5951,
      "mean_anomaly_deg": 84.4691,
      "mean_motion_rev_day": 15.70876844
    },
    {
      "epoch": "2026-04-10T05:44:10.075200Z",
      "apogee_km": 357.78309133665243,
      "perigee_km": 354.997690807706,
      "latitude_deg": 7.969308447154375e-06,
      "longitude_deg": 136.0583234672239,
      "height_km": 356.4786995356088,
      "semi_major_axis_km": 6734.527391072179,
      "eccentricity": 0.0002068,
      "inclination_deg": 43.0032,
      "raan_deg": 60.576,
      "arg_perigee_deg": 256.9251,
      "mean_anomaly_deg": 103.1386,
      "mean_motion_rev_day": 15.70876622
    },
    {
      "epoch": "2026-04-11T13:46:56.163360Z",
      "apogee_km": 357.4274382887552,
      "perigee_km": 355.1013760427204,
      "latitude_deg": -5.4951801804739604e-05,
      "longitude_deg": 6.003631639446716,
      "height_km": 355.6875215132725,
      "semi_major_axis_km": 6734.4014071657375,
      "eccentricity": 0.0001727,
      "inclination_deg": 43.0,
      "raan_deg": 52.5295,
      "arg_perigee_deg": 287.4924,
      "mean_anomaly_deg": 72.5754,
      "mean_motion_rev_day": 15.70920703
    },
    {
      "epoch": "2026-04-13T02:24:22.013856Z",
      "apogee_km": 356.6636278091946,
      "perigee_km": 355.6866138067089,
      "latitude_deg": 9.31403758773635e-06,
      "longitude_deg": 165.94330069004192,
      "height_km": 356.1189753299956,
      "semi_major_axis_km": 6734.312120807952,
      "eccentricity": 7.254e-05,
      "inclination_deg": 42.9994,
      "raan_deg": 43.3309,
      "arg_perigee_deg": 249.3661,
      "mean_anomaly_deg": 110.7129,
      "mean_motion_rev_day": 15.70951945
    },
    {
      "epoch": "2026-04-14T11:58:41.994624Z",
      "apogee_km": 357.9675656917216,
      "perigee_km": 354.7969540241802,
      "latitude_deg": 6.549612641446945e-08,
      "longitude_deg": 12.546176955874413,
      "height_km": 355.0986044809492,
      "semi_major_axis_km": 6734.519259857951,
      "eccentricity": 0.0002354,
      "inclination_deg": 43.0013,
      "raan_deg": 34.8958,
      "arg_perigee_deg": 48.3722,
      "mean_anomaly_deg": 311.7347,
      "mean_motion_rev_day": 15.70879467
    },
    {
      "epoch": "2026-04-15T20:01:24.122208Z",
      "apogee_km": 357.4761822096716,
      "perigee_km": 354.64377895963844,
      "latitude_deg": -4.502062726952475e-05,
      "longitude_deg": -117.4935431353774,
      "height_km": 356.74580741244176,
      "semi_major_axis_km": 6734.196980584655,
      "eccentricity": 0.0002103,
      "inclination_deg": 43.0013,
      "raan_deg": 26.8477,
      "arg_perigee_deg": 229.8472,
      "mean_anomaly_deg": 130.2211,
      "mean_motion_rev_day": 15.70992235
    },
    {
      "epoch": "2026-04-16T11:17:01.898304Z",
      "apogee_km": 356.82683897817515,
      "perigee_km": 356.1210517511008,
      "latitude_deg": -1.8205187533823197e-05,
      "longitude_deg": 9.141960085915313,
      "height_km": 356.04425181084747,
      "semi_major_axis_km": 6734.610945364638,
      "eccentricity": 5.24e-05,
      "inclination_deg": 43.0012,
      "raan_deg": 23.0173,
      "arg_perigee_deg": 304.8073,
      "mean_anomaly_deg": 55.2745,
      "mean_motion_rev_day": 15.70847388
    }
  ]
}